[{"OBJECT_NAME":"ICEYE-X7","OBJECT_ID":"2020-068L","EPOCH":"2026-03-09T22:52:28.702272","MEAN_MOTION":15.29152508,"ECCENTRICITY":0.00068409,"INCLINATION":97.7412,"RA_OF_ASC_NODE":31.2076,"ARG_OF_PERICENTER":332.3045,"MEAN_ANOMALY":27.7829,"EPHEMERIS_TYPE":0,"CLASSIFICATION_TYPE":"U","NORAD_CAT_ID":46496,"ELEMENT_SET_NO":999,"REV_AT_EPOCH":29961,"BSTAR":0.0005654802,"MEAN_MOTION_DOT":0.00015947,"MEAN_MOTION_DDOT":0},{"OBJECT_NAME":"STARLINK-34445","OBJECT_ID":"2025-130V","EPOCH":"2026-03-09T08:55:49.320768","MEAN_MOTION":15.30195162,"ECCENTRICITY":0.00014785,"INCLINATION":53.1602,"RA_OF_ASC_NODE":90.0647,"ARG_OF_PERICENTER":79.581,"MEAN_ANOMALY":280.5358,"EPHEMERIS_TYPE":0,"CLASSIFICATION_TYPE":"U","NORAD_CAT_ID":64457,"ELEMENT_SET_NO":999,"REV_AT_EPOCH":4065,"BSTAR":0.00085833397,"MEAN_MOTION_DOT":0.00025144,"MEAN_MOTION_DDOT":0}]
